NAVSTAR 48 (USA 151)    
1 26407U 00040A   26180.50502477  .00000074  00000+0  00000+0 0  9999
2 26407  54.8501 214.6729 0120848 302.5768 235.1095  2.00557856190192
NAVSTAR 51 (USA 166)    
1 27663U 03005A   26179.61106866  .00000078  00000+0  00000+0 0  9994
2 27663  54.8808 214.5148 0148047  53.1107 335.2091  2.00560056171540
NAVSTAR 54 (USA 177)    
1 28190U 04009A   26179.36518501 -.00000034  00000+0  00000+0 0  9993
2 28190  54.8202 275.2354 0116546 173.5786 190.0980  2.00554511163179
NAVSTAR 56 (USA 180)    
1 28474U 04045A   26179.92780098 -.00000096  00000+0  00000+0 0  9990
2 28474  55.1288 324.4235 0169938 316.6864 158.1858  2.00556587158669
NAVSTAR 57 (USA 183)    
1 28874U 05038A   26179.81758669 -.00000025  00000+0  00000+0 0  9996
2 28874  54.8685 272.7079 0128036 296.2526  63.1609  2.00565022152075
INMARSAT 4-F2           
1 28899U 05044A   26179.97527897 -.00000253  00000+0  00000+0 0  9997
2 28899   5.1093  43.6742 0003334  43.5584 324.4231  1.00271452 75647
NAVSTAR 58 (USA 190)    
1 29486U 06042A   26180.46046719  .00000029  00000+0  00000+0 0  9994
2 29486  54.7121 150.8516 0106853  54.7447 307.5404  2.00569238144648
NAVSTAR 59 (USA 192)    
1 29601U 06052A   26179.38742338  .00000080  00000+0  00000+0 0  9990
2 29601  54.9347 213.5620 0084905  90.9098 270.1445  2.00558869143635
NAVSTAR 60 (USA 196)    
1 32260U 07047A   26178.19682157 -.00000070  00000+0  00000+0 0  9990
2 32260  54.1023  79.6530 0167143  87.5980 274.3314  2.00554886137013
COSMOS 2433 [GLONASS-M] 
1 32275U 07052A   26177.30077292 -.00000084  00000+0  00000+0 0  9997
2 32275  65.5713 315.6262 0002876 196.1254 163.8539  2.13104185145251
COSMOS 2432 [GLONASS-M] 
1 32276U 07052B   26178.97701435 -.00000078  00000+0  00000+0 0  9998
2 32276  65.5863 315.6977 0007480 328.0830 181.6997  2.13103239145315
NAVSTAR 61 (USA 199)    
1 32384U 07062A   26180.47875100 -.00000023  00000+0  00000+0 0  9998
2 32384  55.0217 273.6583 0035894 166.4672 168.7106  2.00560923135754
COSMOS 2434 [GLONASS-M] 
1 32393U 07065A   26178.19052823  .00000101  00000+0  00000+0 0  9992
2 32393  64.3185 191.5785 0001243 326.9302 245.4349  2.13101370143984
COSMOS 2436 [GLONASS-M] 
1 32395U 07065C   26178.84001979  .00000096  00000+0  00000+0 0  9995
2 32395  64.3274 191.6289 0017282 353.5963 129.3057  2.13100206143954
NAVSTAR 62 (USA 201)    
1 32711U 08012A   26179.60288630  .00000026  00000+0  00000+0 0  9999
2 32711  54.4988 149.4688 0211450 247.9745 109.7340  2.00572790133985
NAVSTAR 64 (USA 206)    
1 35752U 09043A   26179.60232265 -.00000074  00000+0  00000+0 0  9999
2 35752  56.2175  27.0036 0053816  83.6950 284.8204  2.00553861123590
COSMOS 2456 [GLONASS-M] 
1 36111U 09070A   26179.34766025 -.00000041  00000+0  00000+0 0  9990
2 36111  65.0173  70.5914 0003933 337.8031 200.4792  2.13103741128664
COSMOS 2457 [GLONASS-M] 
1 36112U 09070B   26178.63741042 -.00000048  00000+0  00000+0 0  9991
2 36112  65.0032  70.4590 0003232 122.1051 358.6068  2.13101175128657
COSMOS 2460 [GLONASS-M] 
1 36402U 10007C   26178.22930437 -.00000082  00000+0  00000+0 0  9996
2 36402  65.4142 314.1261 0002031 121.7117  47.8769  2.13101740126945
NAVSTAR 65 (USA 213)    
1 36585U 10022A   26180.35889388  .00000076  00000+0  00000+0 0  9992
2 36585  54.2696 208.0717 0126463  66.1279 247.7907  2.00563096117836
BEIDOU-2 IGSO-1         
1 36828U 10036A   26179.89643762 -.00000072  00000+0  00000+0 0  9995
2 36828  54.3054 162.8539 0058981 225.1996 319.1624  1.00268967 58210
BEIDOU-2 G4             
1 37210U 10057A   26180.51433594 -.00000105  00000+0  00000+0 0  9992
2 37210   3.6768  68.8782 0004793 190.3034   3.5548  1.00271614 57411
BEIDOU-2 IGSO-2         
1 37256U 10068A   26179.68323434 -.00000195  00000+0  00000+0 0  9990
2 37256  47.5257 271.6882 0056345 213.6566 145.5786  1.00280165 56900
BEIDOU-2 IGSO-3         
1 37384U 11013A   26180.53855912 -.00000164  00000+0  00000+0 0  9996
2 37384  62.4244  40.0349 0035201 183.8161 354.9022  1.00265262 55782
GSAT-8                  
1 37605U 11022A   26180.52805645  .00000093  00000+0  00000+0 0  9999
2 37605   2.1618  81.6850 0001651 179.9793 261.1325  1.00274047 53347
BEIDOU-2 IGSO-4         
1 37763U 11038A   26179.94400245  .00000017  00000+0  00000+0 0  9998
2 37763  54.6034 165.5678 0159694 231.4501 313.7115  1.00283415 54765
GSAT0101 (GALILEO-PFM)  
1 37846U 11060A   26179.58009327 -.00000091  00000+0  00000+0 0  9994
2 37846  56.9903 341.4524 0002773  56.8947 303.1240  1.70475893 91314
GSAT0102 (GALILEO-FM2)  
1 37847U 11060B   26176.58449965 -.00000097  00000+0  00000+0 0  9994
2 37847  56.9921 341.5338 0002831  14.5912 352.5946  1.70476098 91271
COSMOS 2476 [GLONASS-M] 
1 37867U 11064A   26179.36746421 -.00000040  00000+0  00000+0 0  9994
2 37867  65.2764  72.4937 0022499 238.4020 223.3998  2.13103789114006
COSMOS 2477 [GLONASS-M] 
1 37868U 11064B   26179.71891065 -.00000036  00000+0  00000+0 0  9994
2 37868  65.2830  72.5612 0019404 238.6898 313.0373  2.13103077114003
COSMOS 2475 [GLONASS-M] 
1 37869U 11064C   26179.32228542 -.00000040  00000+0  00000+0 0  9991
2 37869  65.2895  72.5964 0025220 252.3811 310.1425  2.13101901114006
